{
  "type": "FeatureCollection",
  "features": [
    {
      "type": "Feature",
      "properties": {
        "norad_id": 39617,
        "name": "ASTRA 5B (EGNOS/PRN 123)",
        "group": "gnss",
        "lat": -0.054644595887179646,
        "lon": -100.71004354885258,
        "alt_km": 35765.17402610579,
        "timestamp": "2025-12-03T10:52:57.693184+00:00",
        "meta_object_name": "ASTRA 5B (EGNOS/PRN 123)",
        "meta_object_id": "2014-011B",
        "meta_epoch": "2025-12-02T22:27:31.550976",
        "meta_mean_motion": 1.00273626,
        "meta_eccentricity": 0.0004827,
        "meta_inclination": 0.0852,
        "meta_ra_of_asc_node": 55.731,
        "meta_arg_of_pericenter": 209.4642,
        "meta_mean_anomaly": 167.2528,
        "meta_ephemeris_type": 0,
        "meta_classification_type": "U",
        "meta_norad_cat_id": 39617,
        "meta_element_set_no": 999,
        "meta_rev_at_epoch": 4269,
        "meta_bstar": 0,
        "meta_mean_motion_dot": 1.57e-06,
        "meta_mean_motion_ddot": 0,
        "tle_line1": "1 39617U 14011B   25336.93578184  .00000157  00000+0  00000+0 0  9998",
        "tle_line2": "2 39617   0.0852  55.7310 0004827 209.4642 167.2528  1.00273626 42691"
      },
      "geometry": {
        "type": "Point",
        "coordinates": [
          -100.71004354885258,
          -0.054644595887179646
        ]
      }
    },
    {
      "type": "Feature",
      "properties": {
        "norad_id": 39620,
        "name": "COSMOS 2492 (754)",
        "group": "gnss",
        "lat": -21.417520978905088,
        "lon": 150.92561835470275,
        "alt_km": 19143.669243514403,
        "timestamp": "2025-12-03T10:52:57.693195+00:00",
        "meta_object_name": "COSMOS 2492 (754)",
        "meta_object_id": "2014-012A",
        "meta_epoch": "2025-12-02T17:14:30.403680",
        "meta_mean_motion": 2.13103072,
        "meta_eccentricity": 0.0014165,
        "meta_inclination": 65.4134,
        "meta_ra_of_asc_node": 320.6107,
        "meta_arg_of_pericenter": 311.0276,
        "meta_mean_anomaly": 48.8557,
        "meta_ephemeris_type": 0,
        "meta_classification_type": "U",
        "meta_norad_cat_id": 39620,
        "meta_element_set_no": 999,
        "meta_rev_at_epoch": 9105,
        "meta_bstar": 0,
        "meta_mean_motion_dot": -3.6e-07,
        "meta_mean_motion_ddot": 0,
        "tle_line1": "1 39620U 14012A   25336.71840745 -.00000036  00000+0  00000+0 0  9991",
        "tle_line2": "2 39620  65.4134 320.6107 0014165 311.0276  48.8557  2.13103072 91052"
      },
      "geometry": {
        "type": "Point",
        "coordinates": [
          150.92561835470275,
          -21.417520978905088
        ]
      }
    },
    {
      "type": "Feature",
      "properties": {
        "norad_id": 39635,
        "name": "IRNSS-1B",
        "group": "gnss",
        "lat": 20.62238370992629,
        "lon": -73.19674918192752,
        "alt_km": 35836.3529839981,
        "timestamp": "2025-12-03T10:52:57.693207+00:00",
        "meta_object_name": "IRNSS-1B",
        "meta_object_id": "2014-017A",
        "meta_epoch": "2025-12-02T19:49:18.476256",
        "meta_mean_motion": 1.00275376,
        "meta_eccentricity": 0.0017619,
        "meta_inclination": 28.8417,
        "meta_ra_of_asc_node": 243.7617,
        "meta_arg_of_pericenter": 183.0296,
        "meta_mean_anomaly": 357.4832,
        "meta_ephemeris_type": 0,
        "meta_classification_type": "U",
        "meta_norad_cat_id": 39635,
        "meta_element_set_no": 999,
        "meta_rev_at_epoch": 4282,
        "meta_bstar": 0,
        "meta_mean_motion_dot": 1.22e-06,
        "meta_mean_motion_ddot": 0,
        "tle_line1": "1 39635U 14017A   25336.82590829  .00000122  00000+0  00000+0 0  9994",
        "tle_line2": "2 39635  28.8417 243.7617 0017619 183.0296 357.4832  1.00275376 42820"
      },
      "geometry": {
        "type": "Point",
        "coordinates": [
          -73.19674918192752,
          20.62238370992629
        ]
      }
    },
    {
      "type": "Feature",
      "properties": {
        "norad_id": 39727,
        "name": "LUCH 5V (SDCM/PRN 141)",
        "group": "gnss",
        "lat": -4.55665516296507,
        "lon": -29.447916118609715,
        "alt_km": 35777.453306670424,
        "timestamp": "2025-12-03T10:52:57.693219+00:00",
        "meta_object_name": "LUCH 5V (SDCM/PRN 141)",
        "meta_object_id": "2014-023A",
        "meta_epoch": "2025-12-02T20:08:22.731072",
        "meta_mean_motion": 1.0027208,
        "meta_eccentricity": 0.0004471,
        "meta_inclination": 4.6426,
        "meta_ra_of_asc_node": 71.6224,
        "meta_arg_of_pericenter": 198.2479,
        "meta_mean_anomaly": 198.9375,
        "meta_ephemeris_type": 0,
        "meta_classification_type": "U",
        "meta_norad_cat_id": 39727,
        "meta_element_set_no": 999,
        "meta_rev_at_epoch": 4239,
        "meta_bstar": 0,
        "meta_mean_motion_dot": -2.51e-06,
        "meta_mean_motion_ddot": 0,
        "tle_line1": "1 39727U 14023A   25336.83915198 -.00000251  00000+0  00000+0 0  9998",
        "tle_line2": "2 39727   4.6426  71.6224 0004471 198.2479 198.9375  1.00272080 42390"
      },
      "geometry": {
        "type": "Point",
        "coordinates": [
          -29.447916118609715,
          -4.55665516296507
        ]
      }
    },
    {
      "type": "Feature",
      "properties": {
        "norad_id": 39741,
        "name": "GPS BIIF-6  (PRN 06)",
        "group": "gnss",
        "lat": -38.23673206576965,
        "lon": -52.208202742752064,
        "alt_km": 20084.334028605972,
        "timestamp": "2025-12-03T10:52:57.693234+00:00",
        "meta_object_name": "GPS BIIF-6  (PRN 06)",
        "meta_object_id": "2014-026A",
        "meta_epoch": "2025-12-02T00:33:52.454592",
        "meta_mean_motion": 2.0056192,
        "meta_eccentricity": 0.00388896,
        "meta_inclination": 56.5877,
        "meta_ra_of_asc_node": 339.1935,
        "meta_arg_of_pericenter": 318.1232,
        "meta_mean_anomaly": 41.6099,
        "meta_ephemeris_type": 0,
        "meta_classification_type": "U",
        "meta_norad_cat_id": 39741,
        "meta_element_set_no": 999,
        "meta_rev_at_epoch": 8458,
        "meta_bstar": 0,
        "meta_mean_motion_dot": -5.7e-07,
        "meta_mean_motion_ddot": 0,
        "tle_line1": "1 39741U 14026A   25336.02352378 -.00000057  00000+0  00000+0 0  9997",
        "tle_line2": "2 39741  56.5877 339.1935 0038889 318.1232  41.6099  2.00561920 84582"
      },
      "geometry": {
        "type": "Point",
        "coordinates": [
          -52.208202742752064,
          -38.23673206576965
        ]
      }
    },
    {
      "type": "Feature",
      "properties": {
        "norad_id": 40001,
        "name": "COSMOS 2500 (755)",
        "group": "gnss",
        "lat": 59.57543139919105,
        "lon": 11.792216514792557,
        "alt_km": 19140.895762999648,
        "timestamp": "2025-12-03T10:52:57.693245+00:00",
        "meta_object_name": "COSMOS 2500 (755)",
        "meta_object_id": "2014-032A",
        "meta_epoch": "2025-12-01T22:51:13.641408",
        "meta_mean_motion": 2.13105853,
        "meta_eccentricity": 0.00082978,
        "meta_inclination": 65.3495,
        "meta_ra_of_asc_node": 320.3998,
        "meta_arg_of_pericenter": 219.081,
        "meta_mean_anomaly": 140.8682,
        "meta_ephemeris_type": 0,
        "meta_classification_type": "U",
        "meta_norad_cat_id": 40001,
        "meta_element_set_no": 999,
        "meta_rev_at_epoch": 8925,
        "meta_bstar": 0,
        "meta_mean_motion_dot": -3.1e-07,
        "meta_mean_motion_ddot": 0,
        "tle_line1": "1 40001U 14032A   25335.95224122 -.00000031  00000+0  00000+0 0  9993",
        "tle_line2": "2 40001  65.3495 320.3998 0008297 219.0810 140.8682  2.13105853 89251"
      },
      "geometry": {
        "type": "Point",
        "coordinates": [
          11.792216514792557,
          59.57543139919105
        ]
      }
    },
    {
      "type": "Feature",
      "properties": {
        "norad_id": 40105,
        "name": "GPS BIIF-7  (PRN 09)",
        "group": "gnss",
        "lat": -50.31133263444219,
        "lon": -26.964506555339618,
        "alt_km": 20242.892644280088,
        "timestamp": "2025-12-03T10:52:57.693257+00:00",
        "meta_object_name": "GPS BIIF-7  (PRN 09)",
        "meta_object_id": "2014-045A",
        "meta_epoch": "2025-12-02T02:40:49.418112",
        "meta_mean_motion": 2.00571797,
        "meta_eccentricity": 0.0032935,
        "meta_inclination": 55.2223,
        "meta_ra_of_asc_node": 96.323,
        "meta_arg_of_pericenter": 119.6015,
        "meta_mean_anomaly": 240.7039,
        "meta_ephemeris_type": 0,
        "meta_classification_type": "U",
        "meta_norad_cat_id": 40105,
        "meta_element_set_no": 999,
        "meta_rev_at_epoch": 8212,
        "meta_bstar": 0,
        "meta_mean_motion_dot": 7e-08,
        "meta_mean_motion_ddot": 0,
        "tle_line1": "1 40105U 14045A   25336.11168308  .00000007  00000+0  00000+0 0  9996",
        "tle_line2": "2 40105  55.2223  96.3230 0032935 119.6015 240.7039  2.00571797 82125"
      },
      "geometry": {
        "type": "Point",
        "coordinates": [
          -26.964506555339618,
          -50.31133263444219
        ]
      }
    }
  ]
}